[{"OBJECT_NAME":"STARLINK-33678","OBJECT_ID":"2025-071S","EPOCH":"2026-03-09T12:32:56.984928","MEAN_MOTION":15.30192299,"ECCENTRICITY":0.00010644,"INCLINATION":53.16,"RA_OF_ASC_NODE":140.7135,"ARG_OF_PERICENTER":61.6042,"MEAN_ANOMALY":298.5066,"EPHEMERIS_TYPE":0,"CLASSIFICATION_TYPE":"U","NORAD_CAT_ID":63509,"ELEMENT_SET_NO":999,"REV_AT_EPOCH":5247,"BSTAR":0.00076480454,"MEAN_MOTION_DOT":0.00022355,"MEAN_MOTION_DDOT":0},{"OBJECT_NAME":"239ALFEROV (RS61S)","OBJECT_ID":"2025-155F","EPOCH":"2026-03-09T21:46:33.382848","MEAN_MOTION":15.29933217,"ECCENTRICITY":0.00084878,"INCLINATION":97.4469,"RA_OF_ASC_NODE":37.6373,"ARG_OF_PERICENTER":151.5904,"MEAN_ANOMALY":208.58,"EPHEMERIS_TYPE":0,"CLASSIFICATION_TYPE":"U","NORAD_CAT_ID":64881,"ELEMENT_SET_NO":999,"REV_AT_EPOCH":6561,"BSTAR":0.00067233359,"MEAN_MOTION_DOT":0.00019457,"MEAN_MOTION_DDOT":0}]
